TIANQI-39               
1 67478U 26010C   26035.46070899  .00000441  00000+0  30491-3 0  9998
2 67478  44.9845 314.0437 0016527  62.8607 297.3914 14.13051784  2786
TIANQI-40               
1 67479U 26010D   26035.45763751  .00000484  00000+0  32391-3 0  9992
2 67479  44.9839 314.0243 0012376  63.6794 296.5314 14.13800335  2788
SZ-20 MODULE            
1 67481U 25082C   26035.40837564  .00023541  00000+0  26187-3 0  9997
2 67481  41.4792  50.2264 0006187  95.6646 264.4899 15.62293512272416
ION SCV-021             
1 67483U 25276DT  26034.18636465  .00001099  00000+0  99302-4 0  9999
2 67483  97.5400 109.5002 0011491 211.3853 148.6685 14.97380347  2557
STARLINK-36551          
1 67493U 26012A   26035.50002314 -.01941587  00000+0 -12326-1 0  9992
2 67493  42.9972 144.9516 0001049 277.1873 323.4212 15.78776415  3734
STARLINK-36396          
1 67494U 26012B   26035.50002314 -.02478894  00000+0 -25860-1 0  9997
2 67494  42.9988 145.1555 0000917 280.0562 239.0241 15.67051130  3731
STARLINK-36550          
1 67495U 26012C   26035.50002314 -.01922575  00000+0 -14645-1 0  9996
2 67495  42.9987 144.9805 0001043 272.8842 316.2188 15.74690920  3739
STARLINK-36534          
1 67496U 26012D   26035.50002314 -.01919569  00000+0 -12669-1 0  9990
2 67496  42.9974 144.9203 0001204 272.7391 340.3846 15.77883764  3670
STARLINK-36555          
1 67497U 26012E   26035.50002314 -.01920374  00000+0 -12725-1 0  9990
2 67497  42.9972 144.9326 0001368 272.1199 336.1291 15.77795671  3739
STARLINK-36081          
1 67498U 26012F   26035.50002314 -.01927777  00000+0 -15006-1 0  9990
2 67498  42.9986 144.9533 0001182 278.6213 321.2151 15.74207124  3678
STARLINK-36558          
1 67499U 26012G   26035.50002314 -.01924920  00000+0 -14991-1 0  9990
2 67499  42.9986 144.9464 0001252 275.0613 327.5546 15.74190222  3739
STARLINK-36557          
1 67500U 26012H   26035.50002314 -.01960469  00000+0 -11139-1 0  9992
2 67500  42.9967 144.8680 0000917 258.1480  15.4357 15.81197435  3735
