CCSDS_OMM_VERS = 2.0
CREATION_DATE  = 
ORIGINATOR     = 

OBJECT_NAME    = TIANQI-39
OBJECT_ID      = 2026-010C
CENTER_NAME    = EARTH
REF_FRAME      = TEME
TIME_SYSTEM    = UTC
MEAN_ELEMENT_THEORY = SGP/SGP4

EPOCH          = 2026-02-04T11:03:25.256736
MEAN_MOTION    = 14.13051784
ECCENTRICITY   = .0016527
INCLINATION    = 44.9845
RA_OF_ASC_NODE = 314.0437
ARG_OF_PERICENTER = 62.8607
MEAN_ANOMALY   = 297.3914

EPHEMERIS_TYPE = 0
CLASSIFICATION_TYPE = U
NORAD_CAT_ID   = 67478
ELEMENT_SET_NO = 999
REV_AT_EPOCH   = 278
BSTAR          = .30491E-3
MEAN_MOTION_DOT = .441E-5
MEAN_MOTION_DDOT = 0

CCSDS_OMM_VERS = 2.0
CREATION_DATE  = 
ORIGINATOR     = 

OBJECT_NAME    = TIANQI-40
OBJECT_ID      = 2026-010D
CENTER_NAME    = EARTH
REF_FRAME      = TEME
TIME_SYSTEM    = UTC
MEAN_ELEMENT_THEORY = SGP/SGP4

EPOCH          = 2026-02-04T10:58:59.880864
MEAN_MOTION    = 14.13800335
ECCENTRICITY   = .0012376
INCLINATION    = 44.9839
RA_OF_ASC_NODE = 314.0243
ARG_OF_PERICENTER = 63.6794
MEAN_ANOMALY   = 296.5314

EPHEMERIS_TYPE = 0
CLASSIFICATION_TYPE = U
NORAD_CAT_ID   = 67479
ELEMENT_SET_NO = 999
REV_AT_EPOCH   = 278
BSTAR          = .32391E-3
MEAN_MOTION_DOT = .484E-5
MEAN_MOTION_DDOT = 0

CCSDS_OMM_VERS = 2.0
CREATION_DATE  = 
ORIGINATOR     = 

OBJECT_NAME    = SZ-20 MODULE
OBJECT_ID      = 2025-082C
CENTER_NAME    = EARTH
REF_FRAME      = TEME
TIME_SYSTEM    = UTC
MEAN_ELEMENT_THEORY = SGP/SGP4

EPOCH          = 2026-02-04T09:48:03.655296
MEAN_MOTION    = 15.62293512
ECCENTRICITY   = .0006187
INCLINATION    = 41.4792
RA_OF_ASC_NODE = 50.2264
ARG_OF_PERICENTER = 95.6646
MEAN_ANOMALY   = 264.4899

EPHEMERIS_TYPE = 0
CLASSIFICATION_TYPE = U
NORAD_CAT_ID   = 67481
ELEMENT_SET_NO = 999
REV_AT_EPOCH   = 27241
BSTAR          = .26187E-3
MEAN_MOTION_DOT = .23541E-3
MEAN_MOTION_DDOT = 0

CCSDS_OMM_VERS = 2.0
CREATION_DATE  = 
ORIGINATOR     = 

OBJECT_NAME    = ION SCV-021
OBJECT_ID      = 2025-276DT
CENTER_NAME    = EARTH
REF_FRAME      = TEME
TIME_SYSTEM    = UTC
MEAN_ELEMENT_THEORY = SGP/SGP4

EPOCH          = 2026-02-03T04:28:21.905760
MEAN_MOTION    = 14.97380347
ECCENTRICITY   = .0011491
INCLINATION    = 97.5400
RA_OF_ASC_NODE = 109.5002
ARG_OF_PERICENTER = 211.3853
MEAN_ANOMALY   = 148.6685

EPHEMERIS_TYPE = 0
CLASSIFICATION_TYPE = U
NORAD_CAT_ID   = 67483
ELEMENT_SET_NO = 999
REV_AT_EPOCH   = 255
BSTAR          = .99302135E-4
MEAN_MOTION_DOT = .1099E-4
MEAN_MOTION_DDOT = 0

CCSDS_OMM_VERS = 2.0
CREATION_DATE  = 
ORIGINATOR     = 

OBJECT_NAME    = STARLINK-36551
OBJECT_ID      = 2026-012A
CENTER_NAME    = EARTH
REF_FRAME      = TEME
TIME_SYSTEM    = UTC
MEAN_ELEMENT_THEORY = SGP/SGP4

EPOCH          = 2026-02-04T12:00:01.999296
MEAN_MOTION    = 15.78776415
ECCENTRICITY   = .0001049
INCLINATION    = 42.9972
RA_OF_ASC_NODE = 144.9516
ARG_OF_PERICENTER = 277.1873
MEAN_ANOMALY   = 323.4212

EPHEMERIS_TYPE = 0
CLASSIFICATION_TYPE = U
NORAD_CAT_ID   = 67493
ELEMENT_SET_NO = 999
REV_AT_EPOCH   = 373
BSTAR          = -.12326E-1
MEAN_MOTION_DOT = -.1941587E-1
MEAN_MOTION_DDOT = 0

CCSDS_OMM_VERS = 2.0
CREATION_DATE  = 
ORIGINATOR     = 

OBJECT_NAME    = STARLINK-36396
OBJECT_ID      = 2026-012B
CENTER_NAME    = EARTH
REF_FRAME      = TEME
TIME_SYSTEM    = UTC
MEAN_ELEMENT_THEORY = SGP/SGP4

EPOCH          = 2026-02-04T12:00:01.999296
MEAN_MOTION    = 15.67051130
ECCENTRICITY   = .0000917
INCLINATION    = 42.9988
RA_OF_ASC_NODE = 145.1555
ARG_OF_PERICENTER = 280.0562
MEAN_ANOMALY   = 239.0241

EPHEMERIS_TYPE = 0
CLASSIFICATION_TYPE = U
NORAD_CAT_ID   = 67494
ELEMENT_SET_NO = 999
REV_AT_EPOCH   = 373
BSTAR          = -.2586E-1
MEAN_MOTION_DOT = -.2478894E-1
MEAN_MOTION_DDOT = 0

CCSDS_OMM_VERS = 2.0
CREATION_DATE  = 
ORIGINATOR     = 

OBJECT_NAME    = STARLINK-36550
OBJECT_ID      = 2026-012C
CENTER_NAME    = EARTH
REF_FRAME      = TEME
TIME_SYSTEM    = UTC
MEAN_ELEMENT_THEORY = SGP/SGP4

EPOCH          = 2026-02-04T12:00:01.999296
MEAN_MOTION    = 15.74690920
ECCENTRICITY   = .0001043
INCLINATION    = 42.9987
RA_OF_ASC_NODE = 144.9805
ARG_OF_PERICENTER = 272.8842
MEAN_ANOMALY   = 316.2188

EPHEMERIS_TYPE = 0
CLASSIFICATION_TYPE = U
NORAD_CAT_ID   = 67495
ELEMENT_SET_NO = 999
REV_AT_EPOCH   = 373
BSTAR          = -.14645E-1
MEAN_MOTION_DOT = -.1922575E-1
MEAN_MOTION_DDOT = 0

CCSDS_OMM_VERS = 2.0
CREATION_DATE  = 
ORIGINATOR     = 

OBJECT_NAME    = STARLINK-36534
OBJECT_ID      = 2026-012D
CENTER_NAME    = EARTH
REF_FRAME      = TEME
TIME_SYSTEM    = UTC
MEAN_ELEMENT_THEORY = SGP/SGP4

EPOCH          = 2026-02-04T12:00:01.999296
MEAN_MOTION    = 15.77883764
ECCENTRICITY   = .0001204
INCLINATION    = 42.9974
RA_OF_ASC_NODE = 144.9203
ARG_OF_PERICENTER = 272.7391
MEAN_ANOMALY   = 340.3846

EPHEMERIS_TYPE = 0
CLASSIFICATION_TYPE = U
NORAD_CAT_ID   = 67496
ELEMENT_SET_NO = 999
REV_AT_EPOCH   = 367
BSTAR          = -.12669E-1
MEAN_MOTION_DOT = -.1919569E-1
MEAN_MOTION_DDOT = 0

CCSDS_OMM_VERS = 2.0
CREATION_DATE  = 
ORIGINATOR     = 

OBJECT_NAME    = STARLINK-36555
OBJECT_ID      = 2026-012E
CENTER_NAME    = EARTH
REF_FRAME      = TEME
TIME_SYSTEM    = UTC
MEAN_ELEMENT_THEORY = SGP/SGP4

EPOCH          = 2026-02-04T12:00:01.999296
MEAN_MOTION    = 15.77795671
ECCENTRICITY   = .0001368
INCLINATION    = 42.9972
RA_OF_ASC_NODE = 144.9326
ARG_OF_PERICENTER = 272.1199
MEAN_ANOMALY   = 336.1291

EPHEMERIS_TYPE = 0
CLASSIFICATION_TYPE = U
NORAD_CAT_ID   = 67497
ELEMENT_SET_NO = 999
REV_AT_EPOCH   = 373
BSTAR          = -.12725E-1
MEAN_MOTION_DOT = -.1920374E-1
MEAN_MOTION_DDOT = 0

CCSDS_OMM_VERS = 2.0
CREATION_DATE  = 
ORIGINATOR     = 

OBJECT_NAME    = STARLINK-36081
OBJECT_ID      = 2026-012F
CENTER_NAME    = EARTH
REF_FRAME      = TEME
TIME_SYSTEM    = UTC
MEAN_ELEMENT_THEORY = SGP/SGP4

EPOCH          = 2026-02-04T12:00:01.999296
MEAN_MOTION    = 15.74207124
ECCENTRICITY   = .0001182
INCLINATION    = 42.9986
RA_OF_ASC_NODE = 144.9533
ARG_OF_PERICENTER = 278.6213
MEAN_ANOMALY   = 321.2151

EPHEMERIS_TYPE = 0
CLASSIFICATION_TYPE = U
NORAD_CAT_ID   = 67498
ELEMENT_SET_NO = 999
REV_AT_EPOCH   = 367
BSTAR          = -.15006E-1
MEAN_MOTION_DOT = -.1927777E-1
MEAN_MOTION_DDOT = 0

CCSDS_OMM_VERS = 2.0
CREATION_DATE  = 
ORIGINATOR     = 

OBJECT_NAME    = STARLINK-36558
OBJECT_ID      = 2026-012G
CENTER_NAME    = EARTH
REF_FRAME      = TEME
TIME_SYSTEM    = UTC
MEAN_ELEMENT_THEORY = SGP/SGP4

EPOCH          = 2026-02-04T12:00:01.999296
MEAN_MOTION    = 15.74190222
ECCENTRICITY   = .0001252
INCLINATION    = 42.9986
RA_OF_ASC_NODE = 144.9464
ARG_OF_PERICENTER = 275.0613
MEAN_ANOMALY   = 327.5546

EPHEMERIS_TYPE = 0
CLASSIFICATION_TYPE = U
NORAD_CAT_ID   = 67499
ELEMENT_SET_NO = 999
REV_AT_EPOCH   = 373
BSTAR          = -.14991E-1
MEAN_MOTION_DOT = -.192492E-1
MEAN_MOTION_DDOT = 0

CCSDS_OMM_VERS = 2.0
CREATION_DATE  = 
ORIGINATOR     = 

OBJECT_NAME    = STARLINK-36557
OBJECT_ID      = 2026-012H
CENTER_NAME    = EARTH
REF_FRAME      = TEME
TIME_SYSTEM    = UTC
MEAN_ELEMENT_THEORY = SGP/SGP4

EPOCH          = 2026-02-04T12:00:01.999296
MEAN_MOTION    = 15.81197435
ECCENTRICITY   = .0000917
INCLINATION    = 42.9967
RA_OF_ASC_NODE = 144.8680
ARG_OF_PERICENTER = 258.1480
MEAN_ANOMALY   = 15.4357

EPHEMERIS_TYPE = 0
CLASSIFICATION_TYPE = U
NORAD_CAT_ID   = 67500
ELEMENT_SET_NO = 999
REV_AT_EPOCH   = 373
BSTAR          = -.11139E-1
MEAN_MOTION_DOT = -.1960469E-1
MEAN_MOTION_DDOT = 0

